[{"OBJECT_NAME":"POLYITAN-1","OBJECT_ID":"2014-033AJ","EPOCH":"2026-03-09T22:27:50.258304","MEAN_MOTION":15.29568085,"ECCENTRICITY":0.00093607,"INCLINATION":98.1053,"RA_OF_ASC_NODE":86.0432,"ARG_OF_PERICENTER":127.248,"MEAN_ANOMALY":232.9614,"EPHEMERIS_TYPE":0,"CLASSIFICATION_TYPE":"U","NORAD_CAT_ID":40042,"ELEMENT_SET_NO":999,"REV_AT_EPOCH":63840,"BSTAR":0.00083772474,"MEAN_MOTION_DOT":0.00024003,"MEAN_MOTION_DDOT":0},{"OBJECT_NAME":"STARLINK-34246","OBJECT_ID":"2025-147Q","EPOCH":"2026-03-09T18:11:38.306400","MEAN_MOTION":15.30206464,"ECCENTRICITY":8.371e-5,"INCLINATION":53.1589,"RA_OF_ASC_NODE":242.3333,"ARG_OF_PERICENTER":75.7231,"MEAN_ANOMALY":284.3863,"EPHEMERIS_TYPE":0,"CLASSIFICATION_TYPE":"U","NORAD_CAT_ID":64769,"ELEMENT_SET_NO":999,"REV_AT_EPOCH":3876,"BSTAR":0.0010520628,"MEAN_MOTION_DOT":0.00030936,"MEAN_MOTION_DDOT":0}]
